ONEWEB-0113             
1 48050U 21025J   24027.80210977  .00000146  00000+0  36365-3 0  9992
2 48050  87.9011 133.6643 0001808 109.0741 251.0584 13.13470665139194
ONEWEB-0112             
1 48051U 21025K   24027.78940605 -.00000152  00000+0 -45068-3 0  9997
2 48051  87.9006 133.6740 0001604 109.5670 250.5632 13.13472600139208
ONEWEB-0156             
1 48052U 21025L   24027.79893413  .00000106  00000+0  25546-3 0  9999
2 48052  87.9011 133.6638 0001589 107.3501 252.7802 13.13470916139180
ONEWEB-0161             
1 48053U 21025M   24027.84813182 -.00000283  00000+0 -80888-3 0  9999
2 48053  87.9014 133.6575 0001554  99.9710 260.1595 13.13468021139124
ONEWEB-0158             
1 48054U 21025N   24027.81005219  .00000311  00000+0  81743-3 0  9992
2 48054  87.9010 133.6595 0001763 110.6292 249.5026 13.13469913139245
ONEWEB-0157             
1 48055U 21025P   24027.83384714  .00000181  00000+0  45989-3 0  9992
2 48055  87.9010 133.6716 0001392 104.8547 255.2737 13.13468894139180
ONEWEB-0162             
1 48056U 21025Q   24027.79734466 -.00000022  00000+0 -96358-4 0  9994
2 48056  87.9007 133.6766 0001586 106.6667 253.4637 13.13470876139159
ONEWEB-0155             
1 48057U 21025R   24027.81798392  .00000371  00000+0  98167-3 0  9990
2 48057  87.9011 133.6805 0001702 107.4974 252.6342 13.13469652139298
ONEWEB-0149             
1 48058U 21025S   24027.83860989 -.00000012  00000+0 -66857-4 0  9991
2 48058  87.9012 133.6737 0001422 112.6324 247.4955 13.13469866139110
ONEWEB-0148             
1 48059U 21025T   24027.80369800  .00000169  00000+0  42741-3 0  9991
2 48059  87.9012 133.6855 0000984 112.5444 247.5789 13.13471290139228
ONEWEB-0160             
1 48060U 21025U   24027.81956838  .00000383  00000+0  10142-2 0  9994
2 48060  87.9013 133.6780 0002473 122.8582 237.2785 13.13470172139174
ONEWEB-0163             
1 48061U 21025V   24027.80528923  .00000310  00000+0  81289-3 0  9995
2 48061  87.9009 133.6773 0001661 103.9858 256.1456 13.13469367139298
ONEWEB-0159             
1 48062U 21025W   24027.79417769 -.00000070  00000+0 -22753-3 0  9995
2 48062  87.9007 133.6646 0001371 103.3305 256.7977 13.13470493139213
ONEWEB-0164             
1 48063U 21025X   24027.85289846 -.00000301  00000+0 -86010-3 0  9999
2 48063  87.9010 133.6625 0001833 105.2705 254.8627 13.13471305139206
ONEWEB-0167             
1 48064U 21025Y   24027.80608483 -.00000451  00000+0 -12702-2 0  9999
2 48064  87.9014 133.6817 0001450 107.0720 253.0568 13.13467004139189
ONEWEB-0166             
1 48065U 21025Z   24027.82750278  .00000320  00000+0  84006-3 0  9992
2 48065  87.9008 133.6661 0001450 112.1437 247.9847 13.13468518139264
ONEWEB-0151             
1 48066U 21025AA  24027.82909448  .00000317  00000+0  83430-3 0  9994
2 48066  87.9009 133.6759 0001885 104.2270 255.9068 13.13468548139204
ONEWEB-0170             
1 48067U 21025AB  24027.83702905  .00000048  00000+0  96307-4 0  9994
2 48067  87.9013 133.6754 0002300 103.7983 256.3403 13.13467757139167
ONEWEB-0168             
1 48068U 21025AC  24027.82274127  .00000351  00000+0  92527-3 0  9990
2 48068  87.9014 133.6439 0001522 104.9848 255.1450 13.13469422139178
ONEWEB-0173             
1 48069U 21025AD  24027.81481226  .00000625  00000+0  16762-2 0  9990
2 48069  87.9013 133.6563 0001685 102.2993 257.8325 13.13469710139415
ONEWEB-0171             
1 48070U 21025AE  24027.85130755 -.00000268  00000+0 -76934-3 0  9997
2 48070  87.9013 133.6837 0001746 101.9680 258.1645 13.13470779139234
ONEWEB-0172             
1 48071U 21025AF  24027.83068437  .00000249  00000+0  64823-3 0  9994
2 48071  87.9015 133.6544 0001697  97.8960 262.2362 13.13470007140127
ONEWEB-0174             
1 48072U 21025AG  24027.81321102  .00000329  00000+0  86717-3 0  9999
2 48072  87.9014 133.6728 0001480 108.6364 251.4926 13.13473077139449
ONEWEB-0175             
1 48073U 21025AH  24027.84178721 -.00000066  00000+0 -21459-3 0  9992
2 48073  87.9009 133.6635 0002024  99.1259 261.0099 13.13467923139107
ONEWEB-0177             
1 48074U 21025AJ  24027.77829652 -.00000261  00000+0 -74868-3 0  9990
2 48074  87.9010 133.6815 0001306  92.4159 267.7119 13.13469552139282
ONEWEB-0178             
1 48075U 21025AK  24027.79590678 -.00000040  00000+0 -14420-3 0  9999
2 48075  87.9015 133.6865 0001508  99.0725 261.0575 13.13471324139338
ONEWEB-0108             
1 48076U 21025AL  24027.83226099  .00000220  00000+0  56663-3 0  9991
2 48076  87.9009 133.6694 0001665 116.6167 243.5132 13.13469293139260
ONEWEB-0169             
1 48077U 21025AM  24027.78783363 -.00000159  00000+0 -47073-3 0  9996
2 48077  87.9008 133.6839 0001649 117.0400 243.0898 13.13473643137916
ONEWEB-0176             
1 48210U 21031A   24027.70646519 -.00000074  00000+0 -23451-3 0  9995
2 48210  87.8962 103.1658 0001867 103.3454 256.7884 13.14502549133824
ONEWEB-0184             
1 48211U 21031B   24027.75563254 -.00000063  00000+0 -20361-3 0  9990
2 48211  87.8962 103.1448 0002730  87.6832 272.4610 13.14502325133808
ONEWEB-0179             
1 48212U 21031C   24027.72550519  .00012544  00000+0  33785-1 0  9995
2 48212  87.8963 103.1485 0001934 124.0153 236.1160 13.14439497133848
ONEWEB-0180             
1 48213U 21031D   24027.75879349 -.00000094  00000+0 -28743-3 0  9993
2 48213  87.8963 103.1437 0001651  96.8047 263.3271 13.14500971133739
ONEWEB-0218             
1 48214U 21031E   24027.70487275 -.00000105  00000+0 -31681-3 0  9990
2 48214  87.8960 103.1566 0002627  82.4595 277.6833 13.14505059133883
ONEWEB-0209             
1 48215U 21031F   24027.76990624 -.00000113  00000+0 -34029-3 0  9992
2 48215  87.8963 103.1741 0001608 100.1800 259.9511 13.14506004133895
ONEWEB-0198             
1 48216U 21031G   24027.75403955  .00000072  00000+0  16097-3 0  9995
2 48216  87.8965 103.1826 0001880  84.2180 275.9164 13.14500930134005
ONEWEB-0189             
1 48217U 21031H   24027.76672015 -.00000167  00000+0 -48430-3 0  9995
2 48217  87.8963 103.1567 0001884  87.9065 272.2281 13.14505072133744
ONEWEB-0196             
1 48218U 21031J   24027.74452470  .00000204  00000+0  51447-3 0  9997
2 48218  87.8966 103.1619 0001844  97.5954 262.5385 13.14504244133743
ONEWEB-0183             
1 48219U 21031K   24027.71915184  .00000094  00000+0  21894-3 0  9991
2 48219  87.8962 103.1852 0001683  99.7359 260.3961 13.14502563133831
ONEWEB-0185             
1 48220U 21031L   24027.74531352  .00000187  00000+0  46942-3 0  9991
2 48220  87.8965 103.1530 0001540  97.6503 262.4801 13.14504151133762
ONEWEB-0187             
1 48221U 21031M   24027.71518162  .00000097  00000+0  22762-3 0  9997
2 48221  87.8962 103.1901 0001584  98.8244 261.3065 13.14505065133771
ONEWEB-0192             
1 48222U 21031N   24027.77147492 -.00000137  00000+0 -40466-3 0  9996
2 48222  87.8964 103.1757 0001881  99.6434 260.4908 13.14504943133694
ONEWEB-0219             
1 48223U 21031P   24027.75086809  .00000087  00000+0  20091-3 0  9993
2 48223  87.8966 103.1545 0001568  94.4278 265.7030 13.14501397133899
ONEWEB-0202             
1 48224U 21031Q   24027.73186661  .00000278  00000+0  71629-3 0  9994
2 48224  87.8961 103.1797 0002235  80.1804 279.9578 13.14497165133872
ONEWEB-0204             
1 48225U 21031R   24027.76593360 -.00000113  00000+0 -33848-3 0  9997
2 48225  87.8960 103.1846 0001536 114.2153 245.9137 13.14505083133778
ONEWEB-0205             
1 48226U 21031S   24027.74135971  .00000241  00000+0  61466-3 0  9993
2 48226  87.8962 103.1606 0001600  97.5959 262.5353 13.14504117133787
ONEWEB-0206             
1 48227U 21031T   24027.71438695  .00000033  00000+0  53719-4 0  9992
2 48227  87.8958 103.1591 0001533  99.9680 260.1622 13.14505045133737
ONEWEB-0182             
1 48228U 21031U   24027.70964098  .00000004  00000+0 -22913-4 0  9994
2 48228  87.8962 103.1808 0001686 107.1263 253.0051 13.14502382133943
ONEWEB-0186             
1 48229U 21031V   24027.72074479  .00000111  00000+0  26614-3 0  9991
2 48229  87.8960 103.1441 0001803  96.3109 263.8226 13.14502991133897
ONEWEB-0181             
1 48230U 21031W   24027.69853863 -.00000161  00000+0 -46799-3 0  9994
2 48230  87.8964 103.2166 0001844  93.2968 266.8372 13.14502584133749
ONEWEB-0188             
1 48231U 21031X   24027.73659986  .00000364  00000+0  94828-3 0  9999
2 48231  87.8963 103.2066 0001703 102.3069 257.8251 13.14504144133656
ONEWEB-0220             
1 48232U 21031Y   24027.70013611 -.00001236  00000+0 -33699-2 0  9995
2 48232  87.8951 103.1864 0001327  75.3118 284.8158 13.14495747133918
ONEWEB-0165             
1 48233U 21031Z   24027.72866192  .00000281  00000+0  72422-3 0  9993
2 48233  87.8963 103.1884 0001679  95.5002 264.6320 13.14504901133875
ONEWEB-0199             
1 48234U 21031AA  24027.71280952  .00000024  00000+0  30676-4 0  9998
2 48234  87.8961 103.1634 0001715  98.3886 261.7438 13.14502517133777
ONEWEB-0203             
1 48235U 21031AB  24027.70332525 -.00000118  00000+0 -35187-3 0  9999
2 48235  87.8961 103.1661 0002379 102.2425 257.8971 13.14502725133789
ONEWEB-0197             
1 48236U 21031AC  24027.75482437 -.00000041  00000+0 -14519-3 0  9994
2 48236  87.8965 103.1626 0001523 112.6431 247.4860 13.14504968133702
ONEWEB-0194             
1 48237U 21031AD  24027.73342800  .00000291  00000+0  75009-3 0  9998
2 48237  87.8964 103.1589 0002125 106.0355 254.1009 13.14503795133876
ONEWEB-0193             
1 48238U 21031AE  24027.74927056  .00000115  00000+0  27663-3 0  9990
2 48238  87.8965 103.1641 0001855  95.7578 264.3763 13.14504180133821
ONEWEB-0191             
1 48239U 21031AF  24027.76038278 -.00000139  00000+0 -40966-3 0  9991
2 48239  87.8962 103.1498 0001878 100.9046 259.2295 13.14502765133687
ONEWEB-0195             
1 48240U 21031AG  24027.73738600  .00000305  00000+0  78929-3 0  9999
2 48240  87.8961 103.1543 0001760  86.3108 273.8223 13.14504396133668
